start=new Date('2023-01-11T00:00:00.000Z').valueOf();
sats=[{"APOAPSIS":"548.394","OBJECT_NAME":"STARLINK-1675","SEMIMAJOR_AXIS":"6925.361","OBJECT_ID":"2020-070AV","ARG_OF_PERICENTER":"54.5020","TLE_LINE1":"1 46575U 20070AV  23010.75253988  .00000351  00000-0  42491-4 0  9992","LAUNCH_DATE":"2020-10-06","COUNTRY_CODE":"US","CLASSIFICATION_TYPE":"U","OBJECT_TYPE":"PAYLOAD","ELEMENT_SET_NO":"999","TIME_SYSTEM":"UTC","PERIOD":"95.592","GP_ID":"222717711","PERIAPSIS":"546.059","FILE":"3739267","MEAN_MOTION_DDOT":"0.0000000000000","CENTER_NAME":"EARTH","RA_OF_ASC_NODE":"276.8556","ECCENTRICITY":"0.00016860","INCLINATION":"53.0532","BSTAR":"0.00004249100000","DECAY_DATE":null,"REF_FRAME":"TEME","TLE_LINE2":"2 46575  53.0532 276.8556 0001686  54.5020 305.6126 15.06395780126133","EPOCH":"2023-01-10T18:03:39.445632","RCS_SIZE":"LARGE","MEAN_ANOMALY":"305.6126","SITE":"AFETR","MEAN_MOTION_DOT":"0.00000351","EPHEMERIS_TYPE":"0","MEAN_MOTION":"15.06395780","REV_AT_EPOCH":"12613","NORAD_CAT_ID":"46575","MEAN_ELEMENT_THEORY":"SGP4"},{"EPOCH":"2023-01-10T06:59:31.357824","RCS_SIZE":"LARGE","MEAN_ANOMALY":"292.6869","TLE_LINE2":"2 46576  53.0542 303.9192 0001291  67.4256 292.6869 15.06392804125726","REF_FRAME":"TEME","MEAN_MOTION":"15.06392804","SITE":"AFETR","MEAN_MOTION_DOT":"-0.00002782","EPHEMERIS_TYPE":"0","NORAD_CAT_ID":"46576","MEAN_ELEMENT_THEORY":"SGP4","REV_AT_EPOCH":"12572","MEAN_MOTION_DDOT":"0.0000000000000","CENTER_NAME":"EARTH","ECCENTRICITY":"0.00012910","INCLINATION":"53.0542","RA_OF_ASC_NODE":"303.9192","DECAY_DATE":null,"BSTAR":"-0.00016799000000","OBJECT_TYPE":"PAYLOAD","ELEMENT_SET_NO":"999","TIME_SYSTEM":"UTC","GP_ID":"222660970","PERIOD":"95.593","PERIAPSIS":"546.342","FILE":"3739038","OBJECT_NAME":"STARLINK-1677","APOAPSIS":"548.130","OBJECT_ID":"2020-070AW","SEMIMAJOR_AXIS":"6925.371","ARG_OF_PERICENTER":"67.4256","TLE_LINE1":"1 46576U 20070AW  23010.29133516 -.00002782  00000-0 -16799-3 0  9999","LAUNCH_DATE":"2020-10-06","CLASSIFICATION_TYPE":"U","COUNTRY_CODE":"US"},{"SEMIMAJOR_AXIS":"6925.361","OBJECT_ID":"2020-070AX","OBJECT_NAME":"STARLINK-1682","APOAPSIS":"548.244","CLASSIFICATION_TYPE":"U","COUNTRY_CODE":"US","LAUNCH_DATE":"2020-10-06","TLE_LINE1":"1 46577U 20070AX  23010.18812748 -.00000273  00000-0  55049-6 0  9995","ARG_OF_PERICENTER":"60.3481","TIME_SYSTEM":"UTC","ELEMENT_SET_NO":"999","OBJECT_TYPE":"PAYLOAD","PERIAPSIS":"546.208","FILE":"3739218","PERIOD":"95.592","GP_ID":"222697311","RA_OF_ASC_NODE":"304.3669","INCLINATION":"53.0546","ECCENTRICITY":"0.00014700","CENTER_NAME":"EARTH","MEAN_MOTION_DDOT":"0.0000000000000","BSTAR":"0.00000055049000","DECAY_DATE":null,"TLE_LINE2":"2 46577  53.0546 304.3669 0001470  60.3481 299.7654 15.06396022125700","REF_FRAME":"TEME","MEAN_ANOMALY":"299.7654","RCS_SIZE":"LARGE","EPOCH":"2023-01-10T04:30:54.214272","REV_AT_EPOCH":"12570","NORAD_CAT_ID":"46577","MEAN_ELEMENT_THEORY":"SGP4","EPHEMERIS_TYPE":"0","MEAN_MOTION_DOT":"-0.00000273","SITE":"AFETR","MEAN_MOTION":"15.06396022"},{"TLE_LINE1":"1 46578U 20070AY  23010.76636856 -.00001345  00000-0 -71435-4 0  9991","ARG_OF_PERICENTER":"51.4848","COUNTRY_CODE":"US","CLASSIFICATION_TYPE":"U","LAUNCH_DATE":"2020-10-06","SEMIMAJOR_AXIS":"6925.366","OBJECT_ID":"2020-070AY","APOAPSIS":"548.538","OBJECT_NAME":"STARLINK-1683","GP_ID":"222718955","PERIOD":"95.592","FILE":"3739267","PERIAPSIS":"545.923","ELEMENT_SET_NO":"999","OBJECT_TYPE":"PAYLOAD","TIME_SYSTEM":"UTC","DECAY_DATE":null,"BSTAR":"-0.00007143500000","CENTER_NAME":"EARTH","MEAN_MOTION_DDOT":"0.0000000000000","INCLINATION":"53.0529","ECCENTRICITY":"0.00018880","RA_OF_ASC_NODE":"286.8407","MEAN_MOTION":"15.06394390","MEAN_MOTION_DOT":"-0.00001345","EPHEMERIS_TYPE":"0","SITE":"AFETR","NORAD_CAT_ID":"46578","MEAN_ELEMENT_THEORY":"SGP4","REV_AT_EPOCH":"12600","MEAN_ANOMALY":"308.6310","RCS_SIZE":"LARGE","EPOCH":"2023-01-10T18:23:34.243584","TLE_LINE2":"2 46578  53.0529 286.8407 0001888  51.4848 308.6310 15.06394390126006","REF_FRAME":"TEME"},{"TIME_SYSTEM":"UTC","OBJECT_TYPE":"PAYLOAD","ELEMENT_SET_NO":"999","PERIAPSIS":"545.997","FILE":"3739038","PERIOD":"95.592","GP_ID":"222660225","APOAPSIS":"548.424","OBJECT_NAME":"STARLINK-1705","OBJECT_ID":"2020-070AZ","SEMIMAJOR_AXIS":"6925.345","LAUNCH_DATE":"2020-10-06","CLASSIFICATION_TYPE":"U","COUNTRY_CODE":"US","ARG_OF_PERICENTER":"71.5492","TLE_LINE1":"1 46579U 20070AZ  23010.50511605  .00001327  00000-0  10794-3 0  9996","TLE_LINE2":"2 46579  53.0573 302.9688 0001752  71.5492 288.5687 15.06401101125758","REF_FRAME":"TEME","RCS_SIZE":"LARGE","EPOCH":"2023-01-10T12:07:22.026720","MEAN_ANOMALY":"288.5687","REV_AT_EPOCH":"12575","NORAD_CAT_ID":"46579","MEAN_ELEMENT_THEORY":"SGP4","SITE":"AFETR","MEAN_MOTION_DOT":"0.00001327","EPHEMERIS_TYPE":"0","MEAN_MOTION":"15.06401101","RA_OF_ASC_NODE":"302.9688","ECCENTRICITY":"0.00017520","INCLINATION":"53.0573","MEAN_MOTION_DDOT":"0.0000000000000","CENTER_NAME":"EARTH","BSTAR":"0.00010794000000","DECAY_DATE":null},{"BSTAR":"0.00006481800000","DECAY_DATE":null,"RA_OF_ASC_NODE":"301.5779","INCLINATION":"53.0530","ECCENTRICITY":"0.00022710","CENTER_NAME":"EARTH","MEAN_MOTION_DDOT":"0.0000000000000","REV_AT_EPOCH":"12580","NORAD_CAT_ID":"46580","MEAN_ELEMENT_THEORY":"SGP4","EPHEMERIS_TYPE":"0","MEAN_MOTION_DOT":"0.00000684","SITE":"AFETR","MEAN_MOTION":"15.06409733","TLE_LINE2":"2 46580  53.0530 301.5779 0002271  40.8083 319.3076 15.06409733125801","REF_FRAME":"TEME","MEAN_ANOMALY":"319.3076","RCS_SIZE":"LARGE","EPOCH":"2023-01-10T19:33:12.877632","COUNTRY_CODE":"US","CLASSIFICATION_TYPE":"U","LAUNCH_DATE":"2020-10-06","TLE_LINE1":"1 46580U 20070BA  23010.81473238  .00000684  00000-0  64818-4 0  9993","ARG_OF_PERICENTER":"40.8083","OBJECT_ID":"2020-070BA","SEMIMAJOR_AXIS":"6925.319","OBJECT_NAME":"STARLINK-1708","APOAPSIS":"548.756","PERIAPSIS":"545.611","FILE":"3739267","PERIOD":"95.592","GP_ID":"222717962","TIME_SYSTEM":"UTC","OBJECT_TYPE":"PAYLOAD","ELEMENT_SET_NO":"999"},{"MEAN_MOTION":"15.06400615","SITE":"AFETR","MEAN_MOTION_DOT":"0.00002062","EPHEMERIS_TYPE":"0","NORAD_CAT_ID":"46581","MEAN_ELEMENT_THEORY":"SGP4","REV_AT_EPOCH":"12582","EPOCH":"2023-01-10T12:21:18.074592","RCS_SIZE":"LARGE","MEAN_ANOMALY":"280.0232","TLE_LINE2":"2 46581  53.0548 297.9138 0001383  80.0913 280.0232 15.06400615125829","REF_FRAME":"TEME","DECAY_DATE":null,"BSTAR":"0.00015730000000","MEAN_MOTION_DDOT":"0.0000000000000","CENTER_NAME":"EARTH","ECCENTRICITY":"0.00013830","INCLINATION":"53.0548","RA_OF_ASC_NODE":"297.9138","GP_ID":"222660711","PERIOD":"95.592","FILE":"3739038","PERIAPSIS":"546.254","ELEMENT_SET_NO":"999","OBJECT_TYPE":"PAYLOAD","TIME_SYSTEM":"UTC","ARG_OF_PERICENTER":"80.0913","TLE_LINE1":"1 46581U 20070BB  23010.51479253  .00002062  00000-0  15730-3 0  9994","LAUNCH_DATE":"2020-10-06","CLASSIFICATION_TYPE":"U","COUNTRY_CODE":"US","APOAPSIS":"548.169","OBJECT_NAME":"STARLINK-1712","OBJECT_ID":"2020-070BB","SEMIMAJOR_AXIS":"6925.347"},{"ELEMENT_SET_NO":"999","OBJECT_TYPE":"PAYLOAD","TIME_SYSTEM":"UTC","GP_ID":"222718457","PERIOD":"95.592","FILE":"3739267","PERIAPSIS":"545.904","APOAPSIS":"548.537","OBJECT_NAME":"STARLINK-1728","OBJECT_ID":"2020-070BC","SEMIMAJOR_AXIS":"6925.356","ARG_OF_PERICENTER":"52.1610","TLE_LINE1":"1 46582U 20070BC  23010.76543803 -.00002183  00000-0 -12767-3 0  9998","LAUNCH_DATE":"2020-10-06","COUNTRY_CODE":"US","CLASSIFICATION_TYPE":"U","EPOCH":"2023-01-10T18:22:13.845792","RCS_SIZE":"LARGE","MEAN_ANOMALY":"307.9551","REF_FRAME":"TEME","TLE_LINE2":"2 46582  53.0529 296.8014 0001901  52.1610 307.9551 15.06397719125867","MEAN_MOTION":"15.06397719","SITE":"AFETR","MEAN_MOTION_DOT":"-0.00002183","EPHEMERIS_TYPE":"0","NORAD_CAT_ID":"46582","MEAN_ELEMENT_THEORY":"SGP4","REV_AT_EPOCH":"12586","MEAN_MOTION_DDOT":"0.0000000000000","CENTER_NAME":"EARTH","ECCENTRICITY":"0.00019010","INCLINATION":"53.0529","RA_OF_ASC_NODE":"296.8014","DECAY_DATE":null,"BSTAR":"-0.00012767000000"},{"SEMIMAJOR_AXIS":"6925.346","OBJECT_ID":"2020-070BD","OBJECT_NAME":"STARLINK-1729","APOAPSIS":"548.853","CLASSIFICATION_TYPE":"U","COUNTRY_CODE":"US","LAUNCH_DATE":"2020-10-06","TLE_LINE1":"1 46583U 20070BD  23010.88154741  .00001241  00000-0  10220-3 0  9995","ARG_OF_PERICENTER":"36.9716","TIME_SYSTEM":"UTC","ELEMENT_SET_NO":"999","OBJECT_TYPE":"PAYLOAD","PERIAPSIS":"545.569","FILE":"3739267","PERIOD":"95.592","GP_ID":"222717712","RA_OF_ASC_NODE":"316.2773","INCLINATION":"53.0553","ECCENTRICITY":"0.00023710","CENTER_NAME":"EARTH","MEAN_MOTION_DDOT":"0.0000000000000","BSTAR":"0.00010220000000","DECAY_DATE":null,"REF_FRAME":"TEME","TLE_LINE2":"2 46583  53.0553 316.2773 0002371  36.9716 323.1436 15.06400795125594","MEAN_ANOMALY":"323.1436","RCS_SIZE":"LARGE","EPOCH":"2023-01-10T21:09:25.696224","REV_AT_EPOCH":"12559","MEAN_ELEMENT_THEORY":"SGP4","NORAD_CAT_ID":"46583","EPHEMERIS_TYPE":"0","MEAN_MOTION_DOT":"0.00001241","SITE":"AFETR","MEAN_MOTION":"15.06400795"},{"APOAPSIS":"548.487","OBJECT_NAME":"STARLINK-1732","SEMIMAJOR_AXIS":"6925.381","OBJECT_ID":"2020-070BE","ARG_OF_PERICENTER":"51.4223","TLE_LINE1":"1 46584U 20070BE  23010.50374148 -.00002143  00000-0 -12504-3 0  9991","LAUNCH_DATE":"2020-10-06","COUNTRY_CODE":"US","CLASSIFICATION_TYPE":"U","OBJECT_TYPE":"PAYLOAD","ELEMENT_SET_NO":"999","TIME_SYSTEM":"UTC","GP_ID":"222660971","PERIOD":"95.593","FILE":"3739038","PERIAPSIS":"546.005","MEAN_MOTION_DDOT":"0.0000000000000","CENTER_NAME":"EARTH","ECCENTRICITY":"0.00017920","INCLINATION":"53.0555","RA_OF_ASC_NODE":"297.9755","DECAY_DATE":null,"BSTAR":"-0.00012504000000","RCS_SIZE":"LARGE","EPOCH":"2023-01-10T12:05:23.263872","MEAN_ANOMALY":"308.6926","TLE_LINE2":"2 46584  53.0555 297.9755 0001792  51.4223 308.6926 15.06389490125829","REF_FRAME":"TEME","MEAN_MOTION":"15.06389490","SITE":"AFETR","EPHEMERIS_TYPE":"0","MEAN_MOTION_DOT":"-0.00002143","NORAD_CAT_ID":"46584","MEAN_ELEMENT_THEORY":"SGP4","REV_AT_EPOCH":"12582"}];
